IRIDIUM 26              
1 24903U 97043A   24130.94405471  .00000928  00000+0  31068-3 0  9994
2 24903  86.3921 279.8063 0002097  87.1044 273.0393 14.36329609398848
IRIDIUM 22              
1 24907U 97043E   24130.90042732  .00000915  00000+0  31322-3 0  9990
2 24907  86.3923 283.0336 0002140  93.0474 267.0967 14.35219778398918
DUMMY MASS 2            
1 24926U 97048B   24130.91298179  .00000858  00000+0  95143-4 0  9993
2 24926  86.3319 323.2227 0009145 134.3293 225.8683 14.85935375445007
IRIDIUM 29              
1 24944U 97051A   24130.91523854  .00000829  00000+0  28081-3 0  9992
2 24944  86.3920 312.9611 0002329  94.5279 265.6184 14.35670510395391
IRIDIUM 33              
1 24946U 97051C   24130.90617342  .00000593  00000+0  20431-3 0  9998
2 24946  86.3835 312.2186 0006553 328.2874  31.7926 14.34337962394923
IRIDIUM 28              
1 24948U 97051E   24130.94450072  .00000882  00000+0  29349-3 0  9997
2 24948  86.3924 310.6941 0001968  79.4793 280.6626 14.36621226395930
